{
    "links": {
        "self": "http://www.neowsapp.com/rest/v1/neo/3183844?api_key=iIulBulltgU6a56xZRHN4H3l9WmuAYTsLGpBGhQ2"
    },
    "id": "3183844",
    "neo_reference_id": "3183844",
    "name": "(2004 LB2)",
    "designation": "2004 LB2",
    "nasa_jpl_url": "http://ssd.jpl.nasa.gov/sbdb.cgi?sstr=3183844",
    "absolute_magnitude_h": 22.3,
    "estimated_diameter": {
        "kilometers": {
            "estimated_diameter_min": 0.0921626549,
            "estimated_diameter_max": 0.2060819612
        },
        "meters": {
            "estimated_diameter_min": 92.1626548503,
            "estimated_diameter_max": 206.0819612321
        },
        "miles": {
            "estimated_diameter_min": 0.057267201,
            "estimated_diameter_max": 0.1280533543
        },
        "feet": {
            "estimated_diameter_min": 302.370924539,
            "estimated_diameter_max": 676.1219416887
        }
    },
    "is_potentially_hazardous_asteroid": false,
    "close_approach_data": [
        {
            "close_approach_date": "2004-06-14",
            "close_approach_date_full": "2004-Jun-14 22:18",
            "epoch_date_close_approach": 1087251480000,
            "relative_velocity": {
                "kilometers_per_second": "19.2925984499",
                "kilometers_per_hour": "69453.3544196191",
                "miles_per_hour": "43155.6134725683"
            },
            "miss_distance": {
                "astronomical": "0.0418822971",
                "lunar": "16.2922135719",
                "kilometers": "6265502.436867177",
                "miles": "3893202.6840619626"
            },
            "orbiting_body": "Earth"
        },
        {
            "close_approach_date": "2034-01-03",
            "close_approach_date_full": "2034-Jan-03 04:04",
            "epoch_date_close_approach": 2019873840000,
            "relative_velocity": {
                "kilometers_per_second": "16.5038585313",
                "kilometers_per_hour": "59413.8907127668",
                "miles_per_hour": "36917.4811487189"
            },
            "miss_distance": {
                "astronomical": "0.072949258",
                "lunar": "28.377261362",
                "kilometers": "10913053.61488046",
                "miles": "6781057.074491948"
            },
            "orbiting_body": "Earth"
        },
        {
            "close_approach_date": "2037-01-27",
            "close_approach_date_full": "2037-Jan-27 15:00",
            "epoch_date_close_approach": 2116681200000,
            "relative_velocity": {
                "kilometers_per_second": "32.0284601631",
                "kilometers_per_hour": "115302.4565872363",
                "miles_per_hour": "71644.4625388858"
            },
            "miss_distance": {
                "astronomical": "0.4585474503",
                "lunar": "178.3749581667",
                "kilometers": "68597721.858810861",
                "miles": "42624647.8318814418"
            },
            "orbiting_body": "Earth"
        },
        {
            "close_approach_date": "2050-11-14",
            "close_approach_date_full": "2050-Nov-14 08:29",
            "epoch_date_close_approach": 2552027340000,
            "relative_velocity": {
                "kilometers_per_second": "16.3811825045",
                "kilometers_per_hour": "58972.2570160682",
                "miles_per_hour": "36643.0671442342"
            },
            "miss_distance": {
                "astronomical": "0.0427065053",
                "lunar": "16.6128305617",
                "kilometers": "6388802.228023711",
                "miles": "3969817.6216047718"
            },
            "orbiting_body": "Venus"
        }
    ],
    "orbital_data": {
        "orbit_id": "10",
        "orbit_determination_date": "2017-04-06 09:12:42",
        "first_observation_date": "2004-06-11",
        "last_observation_date": "2004-06-15",
        "data_arc_in_days": 4,
        "observations_used": 56,
        "orbit_uncertainty": "8",
        "minimum_orbit_intersection": ".00958887",
        "jupiter_tisserand_invariant": "4.727",
        "epoch_osculation": "2453169.5",
        "eccentricity": ".571230882480911",
        "semi_major_axis": "1.33358052941688",
        "inclination": "6.880717585309452",
        "ascending_node_longitude": "261.590504601174",
        "orbital_period": "562.5061771039548",
        "perihelion_distance": ".571798146738715",
        "perihelion_argument": "106.2880018125301",
        "aphelion_distance": "2.095362912095044",
        "perihelion_time": "2453226.805119273125",
        "mean_anomaly": "323.3251264109897",
        "mean_motion": ".6399929719055684",
        "equinox": "J2000",
        "orbit_class": {
            "orbit_class_type": "APO",
            "orbit_class_description": "Near-Earth asteroid orbits which cross the Earth’s orbit similar to that of 1862 Apollo",
            "orbit_class_range": "a (semi-major axis) > 1.0 AU; q (perihelion) < 1.017 AU"
        }
    },
    "is_sentry_object": false
}